NORAD_CAT_ID,OBJECT_NAME,OBJECT_TYPE,EPOCH,MEAN_MOTION,ECCENTRICITY,INCLINATION,RA_OF_ASC_NODE,ARG_OF_PERICENTER,MEAN_ANOMALY,BSTAR,MEAN_MOTION_DOT,MEAN_MOTION_DDOT,TLE_LINE0,TLE_LINE1,TLE_LINE2,SEMIMAJOR_AXIS,PERIOD,APOGEE,PERIGEE,DECAYED
51108.0,STARLINK-3362,PAYLOAD,2024-01-16 19:38:54,15.08836591,0.0001239,53.2155,203.5635,93.5474,266.5659,2.7243e-05,1.46e-06,0.0,0 STARLINK-3362,1 51108U 22005E   24016.81868178  .00000146  00000-0  27243-4 0  9997,2 51108  53.2155 203.5635 0001239  93.5474 266.5659 15.08836591111793,6917.891,95.438,540.613,538.899,0.0
51108.0,STARLINK-3362,PAYLOAD,2024-01-16 21:14:17,15.08837253,0.000123,53.2156,203.2663,89.4321,270.6812,2.8701e-05,1.69e-06,0.0,0 STARLINK-3362,1 51108U 22005E   24016.88492143  .00000169  00000-0  28701-4 0  9994,2 51108  53.2156 203.2663 0001230  89.4321 270.6812 15.08837253110701,6917.889,95.438,540.605,538.903,0.0
51108.0,STARLINK-3362,PAYLOAD,2024-01-17 19:29:41,15.08840524,0.0001259,53.2158,199.1025,88.5955,271.5182,2.9722e-05,1.85e-06,0.0,0 STARLINK-3362,1 51108U 22005E   24017.81228093  .00000185  00000-0  29722-4 0  9991,2 51108  53.2158 199.1025 0001259  88.5955 271.5182 15.08840524111944,6917.879,95.438,540.615,538.873,0.0
51108.0,STARLINK-3362,PAYLOAD,2024-01-18 19:20:28,15.08839951,0.0001251,53.2159,194.6424,85.8124,274.3011,7.218e-05,8.61e-06,0.0,0 STARLINK-3362,1 51108U 22005E   24018.80588139  .00000861  00000-0  72180-4 0  9998,2 51108  53.2159 194.6424 0001251  85.8124 274.3011 15.08839951112099,6917.881,95.438,540.611,538.88,0.0
51108.0,STARLINK-3362,PAYLOAD,2024-01-18 20:55:51,15.08841046,0.000126,53.216,194.3446,85.8817,274.2319,8.0492e-05,9.93e-06,0.0,0 STARLINK-3362,1 51108U 22005E   24018.87212035  .00000993  00000-0  80492-4 0  9995,2 51108  53.2160 194.3446 0001260  85.8817 274.2319 15.08841046111009,6917.877,95.437,540.614,538.871,0.0
51108.0,STARLINK-3362,PAYLOAD,2024-01-19 11:14:19,15.0884405,0.0001307,53.2162,191.6683,81.4864,278.6277,7.9727e-05,9.81e-06,0.0,0 STARLINK-3362,1 51108U 22005E   24019.46827874  .00000981  00000-0  79727-4 0  9990,2 51108  53.2162 191.6683 0001307  81.4864 278.6277 15.08844050112190,6917.868,95.437,540.637,538.829,0.0
51108.0,STARLINK-3362,PAYLOAD,2024-01-19 17:35:51,15.08851516,0.00021,53.2158,190.487,54.0972,306.0214,0.00015589,2.194e-05,0.0,0 STARLINK-3362,1 51108U 22005E   24019.73323146  .00002194  00000-0  15589-3 0  9996,2 51108  53.2158 190.4870 0002100  54.0972 306.0214 15.08851516112235,6917.845,95.437,541.163,538.257,0.0
51108.0,STARLINK-3362,PAYLOAD,2024-01-20 14:15:52,15.08841186,0.0001277,53.2167,186.6216,87.8029,272.3109,-2.1398e-05,-6.28e-06,0.0,0 STARLINK-3362,1 51108U 22005E   24020.59436087 -.00000628  00000-0 -21398-4 0  9999,2 51108  53.2167 186.6216 0001277  87.8029 272.3109 15.08841186111269,6917.877,95.437,540.625,538.858,0.0
51108.0,STARLINK-3362,PAYLOAD,2024-01-20 17:26:39,15.08837371,0.0001223,53.2164,186.0209,94.7611,265.352,-3.2488e-05,-8.05e-06,0.0,0 STARLINK-3362,1 51108U 22005E   24020.72684255 -.00000805  00000-0 -32488-4 0  9995,2 51108  53.2164 186.0209 0001223  94.7611 265.3520 15.08837371112381,6917.888,95.438,540.599,538.907,0.0
51108.0,STARLINK-3362,PAYLOAD,2024-01-20 20:37:25,15.08836813,0.0001205,53.2163,185.4274,93.3592,266.7538,-4.1596e-05,-9.5e-06,0.0,0 STARLINK-3362,1 51108U 22005E   24020.85932324 -.00000950  00000-0 -41596-4 0  9993,2 51108  53.2163 185.4274 0001205  93.3592 266.7538 15.08836813111303,6917.89,95.438,540.589,538.922,0.0
51108.0,STARLINK-3362,PAYLOAD,2024-01-21 10:55:53,15.08852899,0.0001594,53.2159,182.7512,97.6562,262.4611,-0.00024386,-4.168e-05,0.0,0 STARLINK-3362,1 51108U 22005E   24021.45548207 -.00004168  00000-0 -24386-3 0  9995,2 51108  53.2159 182.7512 0001594  97.6562 262.4611 15.08852899112496,6917.841,95.437,540.809,538.603,0.0
51108.0,STARLINK-3362,PAYLOAD,2024-01-21 15:42:02,15.08851059,0.0001266,53.2165,181.8586,93.5812,266.5325,-9.4269e-05,-1.788e-05,0.0,0 STARLINK-3362,1 51108U 22005E   24021.65419686 -.00001788  00000-0 -94269-4 0  9998,2 51108  53.2165 181.8586 0001266  93.5812 266.5325 15.08851059112521,6917.847,95.437,540.587,538.836,0.0
51108.0,STARLINK-3362,PAYLOAD,2024-01-22 17:08:13,15.08833724,0.00014,53.2171,177.1025,88.8476,271.2676,0.00011063,1.473e-05,0.0,0 STARLINK-3362,1 51108U 22005E   24022.71404416  .00001473  00000-0  11063-3 0  9990,2 51108  53.2171 177.1025 0001400  88.8476 271.2676 15.08833724112685,6917.9,95.438,540.733,538.796,0.0
51108.0,STARLINK-3362,PAYLOAD,2024-01-23 15:23:37,15.08840884,0.0001472,53.2173,172.941,89.7302,270.3858,7.223e-05,8.62e-06,0.0,0 STARLINK-3362,1 51108U 22005E   24023.64140408  .00000862  00000-0  72230-4 0  9996,2 51108  53.2173 172.9410 0001472  89.7302 270.3858 15.08840884112828,6917.878,95.437,540.761,538.724,0.0
51108.0,STARLINK-3362,PAYLOAD,2024-01-23 16:59:00,15.0884282,0.0001531,53.2177,172.6437,95.1717,264.945,8.4758e-05,1.061e-05,0.0,0 STARLINK-3362,1 51108U 22005E   24023.70764158  .00001061  00000-0  84758-4 0  9997,2 51108  53.2177 172.6437 0001531  95.1717 264.9450 15.08842820111733,6917.872,95.437,540.796,538.678,0.0
51108.0,STARLINK-3362,PAYLOAD,2024-01-24 13:39:02,15.08832401,0.0001523,53.2174,168.7744,97.0476,263.0689,9.3645e-06,-1.39e-06,0.0,0 STARLINK-3362,1 51108U 22005E   24024.56877412 -.00000139  00000-0  93645-5 0  9992,2 51108  53.2174 168.7744 0001523  97.0476 263.0689 15.08832401111863,6917.904,95.438,540.822,538.715,0.0
51108.0,STARLINK-3362,PAYLOAD,2024-01-24 15:14:25,15.08833254,0.0001529,53.2176,168.4771,101.4859,258.6305,1.5851e-05,-3.6e-07,0.0,0 STARLINK-3362,1 51108U 22005E   24024.63501345 -.00000036  00000-0  15851-4 0  9997,2 51108  53.2176 168.4771 0001529 101.4859 258.6305 15.08833254112978,6917.901,95.438,540.824,538.708,0.0
51108.0,STARLINK-3362,PAYLOAD,2024-01-25 13:29:48,15.08830535,0.000222,53.2177,164.3169,132.3628,227.7552,0.00016787,2.384e-05,0.0,0 STARLINK-3362,1 51108U 22005E   24025.56237074  .00002384  00000-0  16787-3 0  9990,2 51108  53.2177 164.3169 0002220 132.3628 227.7552 15.08830535112016,6917.909,95.438,541.31,538.239,0.0
51108.0,STARLINK-3362,PAYLOAD,2024-01-25 16:40:34,15.08847993,0.0001369,53.2168,163.7196,79.3185,280.7961,1.3493e-05,-7.3e-07,0.0,0 STARLINK-3362,1 51108U 22005E   24025.69484824 -.00000073  00000-0  13493-4 0  9997,2 51108  53.2168 163.7196 0001369  79.3185 280.7961 15.08847993113133,6917.856,95.437,540.668,538.774,0.0
51108.0,STARLINK-3362,PAYLOAD,2024-01-26 13:20:35,15.08842069,0.0001634,53.2176,159.8517,65.9748,294.1415,0.00011707,1.576e-05,0.0,0 STARLINK-3362,1 51108U 22005E   24026.55597080  .00001576  00000-0  11707-3 0  9995,2 51108  53.2176 159.8517 0001634  65.9748 294.1415 15.08842069112160,6917.874,95.437,540.869,538.609,0.0
51108.0,STARLINK-3362,PAYLOAD,2024-01-26 16:31:21,15.08846059,0.0001864,53.2182,159.2557,61.0384,299.0795,0.00015057,2.109e-05,0.0,0 STARLINK-3362,1 51108U 22005E   24026.68844822  .00002109  00000-0  15057-3 0  9993,2 51108  53.2182 159.2557 0001864  61.0384 299.0795 15.08846059113285,6917.862,95.437,541.016,538.437,0.0
51108.0,STARLINK-3362,PAYLOAD,2024-01-27 08:25:13,15.08845886,0.0001742,53.2163,156.2899,66.5947,293.5229,5.0041e-05,5.09e-06,0.0,0 STARLINK-3362,1 51108U 22005E   24027.35085117  .00000509  00000-0  50041-4 0  9997,2 51108  53.2163 156.2899 0001742  66.5947 293.5229 15.08845886113389,6917.862,95.437,540.932,538.522,0.0
51108.0,STARLINK-3362,PAYLOAD,2024-01-27 14:46:46,15.0884281,0.0001707,53.2173,155.0978,69.1163,291.0012,1.4818e-05,-5.2e-07,0.0,0 STARLINK-3362,1 51108U 22005E   24027.61581366 -.00000052  00000-0  14818-4 0  9999,2 51108  53.2173 155.0978 0001707  69.1163 291.0012 15.08842810112325,6917.872,95.437,540.918,538.556,0.0
51108.0,STARLINK-3362,PAYLOAD,2024-01-28 11:26:48,15.08828617,0.0001547,53.2181,151.2244,72.9089,287.2072,-0.00011073,-2.049e-05,0.0,0 STARLINK-3362,1 51108U 22005E   24028.47694863 -.00002049  00000-0 -11073-3 0  9999,2 51108  53.2181 151.2244 0001547  72.9089 287.2072 15.08828617113557,6917.915,95.438,540.85,538.71,0.0
51108.0,STARLINK-3362,PAYLOAD,2024-01-28 14:37:34,15.08827555,0.0001284,53.2167,150.63,91.0873,269.0266,-0.00017274,-3.035e-05,0.0,0 STARLINK-3362,1 51108U 22005E   24028.60943048 -.00003035  00000-0 -17274-3 0  9991,2 51108  53.2167 150.6300 0001284  91.0873 269.0266 15.08827555112471,6917.918,95.438,540.672,538.895,0.0
51108.0,STARLINK-3362,PAYLOAD,2024-01-29 11:17:34,15.08837819,0.0001397,53.2169,146.7686,67.0739,293.0401,3.6956e-05,3e-06,0.0,0 STARLINK-3362,1 51108U 22005E   24029.47054307  .00000300  00000-0  36956-4 0  9997,2 51108  53.2169 146.7686 0001397  67.0739 293.0401 15.08837819113704,6917.887,95.438,540.718,538.786,0.0
51108.0,STARLINK-3362,PAYLOAD,2024-01-29 17:39:06,15.08851552,0.000184,53.2162,145.5755,115.5165,244.6018,0.00010676,1.412e-05,0.0,0 STARLINK-3362,1 51108U 22005E   24029.73548985  .00001412  00000-0  10676-3 0  9991,2 51108  53.2162 145.5755 0001840 115.5165 244.6018 15.08851552113746,6917.845,95.437,540.983,538.437,0.0
51108.0,STARLINK-3362,PAYLOAD,2024-01-30 11:08:21,15.08839626,0.0001865,53.2155,142.3003,119.3104,240.8074,0.00022698,3.326e-05,0.0,0 STARLINK-3362,1 51108U 22005E   24030.46413517  .00003326  00000-0  22698-3 0  9998,2 51108  53.2155 142.3003 0001865 119.3104 240.8074 15.08839626113851,6917.882,95.438,541.037,538.456,0.0
51108.0,STARLINK-3362,PAYLOAD,2024-01-30 12:43:44,15.0883334,0.0001536,53.217,142.01,100.0638,260.0528,0.00023569,3.464e-05,0.0,0 STARLINK-3362,1 51108U 22005E   24030.53038126  .00003464  00000-0  23569-3 0  9996,2 51108  53.2170 142.0100 0001536 100.0638 260.0528 15.08833340112761,6917.901,95.438,540.828,538.703,0.0
51108.0,STARLINK-3362,PAYLOAD,2024-01-31 12:34:31,15.08854971,0.000141,53.217,137.5521,94.3292,265.7861,-0.00014759,-2.637e-05,0.0,0 STARLINK-3362,1 51108U 22005E   24031.52397933 -.00002637  00000-0 -14759-3 0  9994,2 51108  53.2170 137.5521 0001410  94.3292 265.7861 15.08854971114014,6917.835,95.437,540.675,538.724,0.0
